HAWK-C                  
1 43799U 18099AT  26068.67261865  .00009431  00000+0  35663-3 0  9994
2 43799  97.4027 122.6817 0040363 277.4052  82.2601 15.26407167398720
STARLINK-34157          
1 64084U 25107W   26068.43183739  .00026726  00000+0  97682-3 0  9994
2 64084  42.9983 202.7687 0001566 199.7277 160.3514 15.27592506 46069
